NORAD_CAT_ID,OBJECT_NAME,OBJECT_TYPE,EPOCH,MEAN_MOTION,ECCENTRICITY,INCLINATION,RA_OF_ASC_NODE,ARG_OF_PERICENTER,MEAN_ANOMALY,BSTAR,MEAN_MOTION_DOT,MEAN_MOTION_DDOT,TLE_LINE0,TLE_LINE1,TLE_LINE2,SEMIMAJOR_AXIS,PERIOD,APOGEE,PERIGEE,DECAYED
52461.0,STARLINK-3900,PAYLOAD,2024-06-14 21:09:54,15.08840448,0.0001574,53.2185,9.9028,71.2077,288.9086,0.00016047,2.267e-05,0.0,0 STARLINK-3900,1 52461U 22049L   24166.88188608  .00002267  00000-0  16047-3 0  9999,2 52461  53.2185   9.9028 0001574  71.2077 288.9086 15.08840448116857,6917.879,95.438,540.833,538.655,0.0
52461.0,STARLINK-3900,PAYLOAD,2024-06-15 13:03:46,15.0884463,0.0001254,53.2173,6.9336,90.5161,269.5975,0.0002158,3.149e-05,0.0,0 STARLINK-3900,1 52461U 22049L   24167.54428424  .00003149  00000-0  21580-3 0  9994,2 52461  53.2173   6.9336 0001254  90.5161 269.5975 15.08844630116956,6917.866,95.437,540.599,538.864,0.0
52461.0,STARLINK-3900,PAYLOAD,2024-06-15 22:36:04,15.08857028,0.0001275,53.2169,5.1487,89.8383,270.2755,0.00050789,7.808e-05,0.0,0 STARLINK-3900,1 52461U 22049L   24167.94171997  .00007808  00000-0  50789-3 0  9997,2 52461  53.2169   5.1487 0001275  89.8383 270.2755 15.08857028117017,6917.828,95.436,540.575,538.811,0.0
52461.0,STARLINK-3900,PAYLOAD,2024-06-16 06:33:00,15.0884187,0.0001282,53.2172,3.66,104.0289,256.0846,0.00033402,5.032e-05,0.0,0 STARLINK-3900,1 52461U 22049L   24168.27292330  .00005032  00000-0  33402-3 0  9999,2 52461  53.2172   3.6600 0001282 104.0289 256.0846 15.08841870117060,6917.875,95.437,540.627,538.853,0.0
52461.0,STARLINK-3900,PAYLOAD,2024-06-16 19:16:05,15.0884211,0.0001399,53.2173,1.2832,84.8027,275.3124,0.0001318,1.81e-05,0.0,0 STARLINK-3900,1 52461U 22049L   24168.80284476  .00001810  00000-0  13180-3 0  9991,2 52461  53.2173   1.2832 0001399  84.8027 275.3124 15.08842110117146,6917.874,95.437,540.707,538.771,0.0
52461.0,STARLINK-3900,PAYLOAD,2024-06-17 19:06:52,15.08838484,0.0001368,53.2186,356.8209,93.4671,266.6478,1.7372e-06,-2.6e-06,0.0,0 STARLINK-3900,1 52461U 22049L   24169.79644672 -.00000260  00000-0  17372-5 0  9996,2 52461  53.2186 356.8209 0001368  93.4671 266.6478 15.08838484117452,6917.885,95.438,540.696,538.804,0.0
52461.0,STARLINK-3900,PAYLOAD,2024-06-17 22:17:39,15.08841295,0.000134,53.2187,356.2259,95.1312,264.9833,-8.4953e-06,-4.23e-06,0.0,0 STARLINK-3900,1 52461U 22049L   24169.92892604 -.00000423  00000-0 -84953-5 0  9992,2 52461  53.2187 356.2259 0001340  95.1312 264.9833 15.08841295117318,6917.876,95.437,540.668,538.814,0.0
52461.0,STARLINK-3900,PAYLOAD,2024-06-18 18:57:40,15.08842667,0.0001363,53.2184,352.3613,88.1833,271.9315,0.00014696,2.052e-05,0.0,0 STARLINK-3900,1 52461U 22049L   24170.79004672  .00002052  00000-0  14696-3 0  9992,2 52461  53.2184 352.3613 0001363  88.1833 271.9315 15.08842667117442,6917.872,95.437,540.68,538.794,0.0
52461.0,STARLINK-3900,PAYLOAD,2024-06-19 10:51:31,15.08835288,0.0001285,53.2177,349.3895,88.5788,271.5351,7.9429e-05,9.76e-06,0.0,0 STARLINK-3900,1 52461U 22049L   24171.45245141  .00000976  00000-0  79429-4 0  9993,2 52461  53.2177 349.3895 0001285  88.5788 271.5351 15.08835288117704,6917.895,95.438,540.649,538.871,0.0
52461.0,STARLINK-3900,PAYLOAD,2024-06-19 18:48:27,15.08837918,0.0001171,53.2181,347.9026,87.9874,272.1252,0.00011776,1.587e-05,0.0,0 STARLINK-3900,1 52461U 22049L   24171.78365041  .00001587  00000-0  11776-3 0  9990,2 52461  53.2181 347.9026 0001171  87.9874 272.1252 15.08837918117598,6917.887,95.438,540.562,538.942,0.0
52461.0,STARLINK-3900,PAYLOAD,2024-06-20 04:20:46,15.08835891,0.0001214,53.2184,346.1186,87.0572,273.0559,0.00018269,2.621e-05,0.0,0 STARLINK-3900,1 52461U 22049L   24172.18109147  .00002621  00000-0  18269-3 0  9992,2 52461  53.2184 346.1186 0001214  87.0572 273.0559 15.08835891117658,6917.893,95.438,540.598,538.918,0.0
52461.0,STARLINK-3900,PAYLOAD,2024-06-20 17:03:51,15.08841323,0.0001256,53.219,343.74,89.6083,270.5053,-4.6918e-06,-3.63e-06,0.0,0 STARLINK-3900,1 52461U 22049L   24172.71101327 -.00000363  00000-0 -46918-5 0  9990,2 52461  53.2190 343.7400 0001256  89.6083 270.5053 15.08841323117735,6917.876,95.437,540.61,538.872,0.0
52461.0,STARLINK-3900,PAYLOAD,2024-06-20 18:39:14,15.08838891,0.0001282,53.2196,343.4431,87.6987,272.4152,7.6945e-05,9.37e-06,0.0,0 STARLINK-3900,1 52461U 22049L   24172.77725280  .00000937  00000-0  76945-4 0  9993,2 52461  53.2196 343.4431 0001282  87.6987 272.4152 15.08838891117908,6917.884,95.438,540.636,538.862,0.0
52461.0,STARLINK-3900,PAYLOAD,2024-06-21 07:22:20,15.08834765,0.000124,53.2193,341.0652,100.1113,260.0019,6.6063e-05,7.64e-06,0.0,0 STARLINK-3900,1 52461U 22049L   24173.30717681  .00000764  00000-0  66063-4 0  9997,2 52461  53.2193 341.0652 0001240 100.1113 260.0019 15.08834765117822,6917.896,95.438,540.619,538.904,0.0
52461.0,STARLINK-3900,PAYLOAD,2024-06-21 20:05:24,15.088654,0.0001145,53.2183,338.6853,86.656,273.4563,-0.00028309,-4.794e-05,0.0,0 STARLINK-3900,1 52461U 22049L   24173.83708421 -.00004794  00000-0 -28309-3 0  9996,2 52461  53.2183 338.6853 0001145  86.6560 273.4563 15.08865400118063,6917.803,95.436,540.46,538.876,0.0
52461.0,STARLINK-3900,PAYLOAD,2024-06-22 18:20:48,15.08847004,0.0001244,53.2184,334.5205,80.7314,279.3819,9.8235e-05,1.276e-05,0.0,0 STARLINK-3900,1 52461U 22049L   24174.76445144  .00001276  00000-0  98235-4 0  9995,2 52461  53.2184 334.5205 0001244  80.7314 279.3819 15.08847004118207,6917.859,95.437,540.585,538.863,0.0
52461.0,STARLINK-3900,PAYLOAD,2024-06-23 10:14:40,15.08829134,0.0001446,53.219,331.5497,74.2212,285.894,0.0002882,4.3e-05,0.0,0 STARLINK-3900,1 52461U 22049L   24175.42685935  .00004300  00000-0  28820-3 0  9996,2 52461  53.2190 331.5497 0001446  74.2212 285.8940 15.08829134118305,6917.914,95.438,540.779,538.778,0.0
52461.0,STARLINK-3900,PAYLOAD,2024-06-23 19:46:58,15.08847857,0.0001314,53.2187,329.7642,88.1342,271.9801,0.00010893,1.446e-05,0.0,0 STARLINK-3900,1 52461U 22049L   24175.82429052  .00001446  00000-0  10893-3 0  9995,2 52461  53.2187 329.7642 0001314  88.1342 271.9801 15.08847857118364,6917.856,95.437,540.63,538.812,0.0
52461.0,STARLINK-3900,PAYLOAD,2024-06-24 14:51:36,15.08850429,0.0001656,53.2202,326.1962,125.2832,234.8315,3.0692e-05,2.01e-06,0.0,0 STARLINK-3900,1 52461U 22049L   24176.61916778  .00000201  00000-0  30692-4 0  9997,2 52461  53.2202 326.1962 0001656 125.2832 234.8315 15.08850429118327,6917.849,95.437,540.859,538.568,0.0
52461.0,STARLINK-3900,PAYLOAD,2024-06-24 16:26:59,15.0885041,0.0001514,53.2201,325.899,89.6879,270.4286,6.3294e-05,7.2e-06,0.0,0 STARLINK-3900,1 52461U 22049L   24176.68540846  .00000720  00000-0  63294-4 0  9993,2 52461  53.2201 325.8990 0001514  89.6879 270.4286 15.08850410118334,6917.849,95.437,540.761,538.666,0.0
52461.0,STARLINK-3900,PAYLOAD,2024-06-25 13:07:00,15.08842272,0.0001367,53.2204,322.0332,111.9924,248.1214,4.6749e-05,4.56e-06,0.0,0 STARLINK-3900,1 52461U 22049L   24177.54653181  .00000456  00000-0  46749-4 0  9998,2 52461  53.2204 322.0332 0001367 111.9924 248.1214 15.08842272118624,6917.873,95.437,540.684,538.793,0.0
52461.0,STARLINK-3900,PAYLOAD,2024-06-25 14:42:23,15.08842699,0.0001317,53.2203,321.7357,106.0572,254.0565,4.9353e-05,4.98e-06,0.0,0 STARLINK-3900,1 52461U 22049L   24177.61277161  .00000498  00000-0  49353-4 0  9996,2 52461  53.2203 321.7357 0001317 106.0572 254.0565 15.08842699118476,6917.872,95.437,540.648,538.826,0.0
52461.0,STARLINK-3900,PAYLOAD,2024-06-25 17:53:09,15.08845287,0.0001408,53.2189,321.1386,112.7356,247.3785,6.2096e-05,7.01e-06,0.0,0 STARLINK-3900,1 52461U 22049L   24177.74524869  .00000701  00000-0  62096-4 0  9996,2 52461  53.2189 321.1386 0001408 112.7356 247.3785 15.08845287118497,6917.864,95.437,540.703,538.755,0.0
52461.0,STARLINK-3900,PAYLOAD,2024-06-27 12:48:34,15.08841533,0.00015,53.2187,313.1122,97.5905,262.5257,3.003e-05,1.9e-06,0.0,0 STARLINK-3900,1 52461U 22049L   24179.53373321  .00000190  00000-0  30030-4 0  9995,2 52461  53.2187 313.1122 0001500  97.5905 262.5257 15.08841533118928,6917.876,95.437,540.778,538.703,0.0
52461.0,STARLINK-3900,PAYLOAD,2024-06-27 20:45:29,15.08850613,0.0001179,53.2186,311.6234,90.5905,269.5223,0.00010908,1.449e-05,0.0,0 STARLINK-3900,1 52461U 22049L   24179.86492633  .00001449  00000-0  10908-3 0  9998,2 52461  53.2186 311.6234 0001179  90.5905 269.5223 15.08850613118816,6917.848,95.437,540.529,538.897,0.0
52461.0,STARLINK-3900,PAYLOAD,2024-06-28 01:31:40,15.08826847,0.0002073,53.2182,310.7283,93.0321,267.0908,-8.7219e-06,-4.27e-06,0.0,0 STARLINK-3900,1 52461U 22049L   24180.06366673 -.00000427  00000-0 -87219-5 0  9994,2 52461  53.2182 310.7283 0002073  93.0321 267.0908 15.08826847119007,6917.921,95.438,541.22,538.352,0.0
52461.0,STARLINK-3900,PAYLOAD,2024-06-28 12:39:22,15.0883827,8.59e-05,53.2173,308.6491,84.3091,275.7999,3.1521e-05,2.14e-06,0.0,0 STARLINK-3900,1 52461U 22049L   24180.52734101  .00000214  00000-0  31521-4 0  9996,2 52461  53.2173 308.6491 0000859  84.3091 275.7999 15.08838270119077,6917.886,95.438,540.345,539.156,0.0
52461.0,STARLINK-3900,PAYLOAD,2024-06-28 14:14:45,15.08837377,8.53e-05,53.2162,308.3519,85.8485,274.2605,-3.6559e-05,-8.69e-06,0.0,0 STARLINK-3900,1 52461U 22049L   24180.59357709 -.00000869  00000-0 -36559-4 0  9992,2 52461  53.2162 308.3519 0000853  85.8485 274.2605 15.08837377118928,6917.888,95.438,540.344,539.163,0.0
52461.0,STARLINK-3900,PAYLOAD,2024-06-28 19:00:53,15.08858512,0.0001078,53.2179,307.46,80.9051,279.2063,0.00022077,3.229e-05,0.0,0 STARLINK-3900,1 52461U 22049L   24180.79228488  .00003229  00000-0  22077-3 0  9995,2 52461  53.2179 307.4600 0001078  80.9051 279.2063 15.08858512119111,6917.824,95.436,540.435,538.943,0.0
52461.0,STARLINK-3900,PAYLOAD,2024-06-29 01:22:26,15.08843856,0.000165,53.2176,306.2699,74.6386,285.4788,1.0865e-05,-1.15e-06,0.0,0 STARLINK-3900,1 52461U 22049L   24181.05725510 -.00000115  00000-0  10865-4 0  9998,2 52461  53.2176 306.2699 0001650  74.6386 285.4788 15.08843856119152,6917.869,95.437,540.875,538.592,0.0
